{
  "type": "FeatureCollection",
  "features": [
    {
      "type": "Feature",
      "properties": {
        "norad_id": 30250,
        "name": "FENGYUN 1C DEB",
        "group": "fengyun-1c-debris",
        "lat": -41.184966471731286,
        "lon": 0.8934686804036164,
        "alt_km": 931.2529674359175,
        "timestamp": "2025-12-27T19:21:59.024958+00:00",
        "meta_object_name": "FENGYUN 1C DEB",
        "meta_object_id": "1999-025XK",
        "meta_epoch": "2025-12-27T11:35:58.658784",
        "meta_mean_motion": 14.01638834,
        "meta_eccentricity": 0.0068492,
        "meta_inclination": 98.7545,
        "meta_ra_of_asc_node": 352.8344,
        "meta_arg_of_pericenter": 181.5798,
        "meta_mean_anomaly": 304.1749,
        "meta_ephemeris_type": 0,
        "meta_classification_type": "U",
        "meta_norad_cat_id": 30250,
        "meta_element_set_no": 999,
        "meta_rev_at_epoch": 96698,
        "meta_bstar": 0.0002264,
        "meta_mean_motion_dot": 3.08e-06,
        "meta_mean_motion_ddot": 0,
        "tle_line1": "1 30250U 99025XK  25361.48331781  .00000308  00000+0  22640-3 0  9994",
        "tle_line2": "2 30250  98.7545 352.8344 0068492 181.5798 304.1749 14.01638834966981"
      },
      "geometry": {
        "type": "Point",
        "coordinates": [
          0.8934686804036164,
          -41.184966471731286
        ]
      }
    },
    {
      "type": "Feature",
      "properties": {
        "norad_id": 30251,
        "name": "FENGYUN 1C DEB",
        "group": "fengyun-1c-debris",
        "lat": 78.85759900727912,
        "lon": 146.69719883190942,
        "alt_km": 820.4591759834975,
        "timestamp": "2025-12-27T19:21:59.024967+00:00",
        "meta_object_name": "FENGYUN 1C DEB",
        "meta_object_id": "1999-025XL",
        "meta_epoch": "2025-12-27T12:21:08.797824",
        "meta_mean_motion": 14.29340913,
        "meta_eccentricity": 0.0051339,
        "meta_inclination": 99.0487,
        "meta_ra_of_asc_node": 200.4006,
        "meta_arg_of_pericenter": 287.2117,
        "meta_mean_anomaly": 93.0961,
        "meta_ephemeris_type": 0,
        "meta_classification_type": "U",
        "meta_norad_cat_id": 30251,
        "meta_element_set_no": 999,
        "meta_rev_at_epoch": 98353,
        "meta_bstar": 0.00055199,
        "meta_mean_motion_dot": 1.378e-05,
        "meta_mean_motion_ddot": 0,
        "tle_line1": "1 30251U 99025XL  25361.51468516  .00001378  00000+0  55199-3 0  9999",
        "tle_line2": "2 30251  99.0487 200.4006 0051339 287.2117  93.0961 14.29340913983533"
      },
      "geometry": {
        "type": "Point",
        "coordinates": [
          146.69719883190942,
          78.85759900727912
        ]
      }
    },
    {
      "type": "Feature",
      "properties": {
        "norad_id": 30252,
        "name": "FENGYUN 1C DEB",
        "group": "fengyun-1c-debris",
        "lat": -32.87892867967303,
        "lon": 22.121741263332726,
        "alt_km": 895.805319080996,
        "timestamp": "2025-12-27T19:21:59.024976+00:00",
        "meta_object_name": "FENGYUN 1C DEB",
        "meta_object_id": "1999-025XM",
        "meta_epoch": "2025-12-26T15:07:55.397856",
        "meta_mean_motion": 14.09732559,
        "meta_eccentricity": 0.0066435,
        "meta_inclination": 98.7428,
        "meta_ra_of_asc_node": 15.2704,
        "meta_arg_of_pericenter": 202.0447,
        "meta_mean_anomaly": 277.0353,
        "meta_ephemeris_type": 0,
        "meta_classification_type": "U",
        "meta_norad_cat_id": 30252,
        "meta_element_set_no": 999,
        "meta_rev_at_epoch": 97161,
        "meta_bstar": 0.0004759,
        "meta_mean_motion_dot": 8.1e-06,
        "meta_mean_motion_ddot": 0,
        "tle_line1": "1 30252U 99025XM  25360.63050229  .00000810  00000+0  47590-3 0  9996",
        "tle_line2": "2 30252  98.7428  15.2704 0066435 202.0447 277.0353 14.09732559971610"
      },
      "geometry": {
        "type": "Point",
        "coordinates": [
          22.121741263332726,
          -32.87892867967303
        ]
      }
    },
    {
      "type": "Feature",
      "properties": {
        "norad_id": 30253,
        "name": "FENGYUN 1C DEB",
        "group": "fengyun-1c-debris",
        "lat": -59.809188602842326,
        "lon": 103.94647587563098,
        "alt_km": 915.2877875161603,
        "timestamp": "2025-12-27T19:21:59.024985+00:00",
        "meta_object_name": "FENGYUN 1C DEB",
        "meta_object_id": "1999-025XN",
        "meta_epoch": "2025-12-27T05:57:51.357312",
        "meta_mean_motion": 13.73239454,
        "meta_eccentricity": 0.0220763,
        "meta_inclination": 98.7506,
        "meta_ra_of_asc_node": 88.0845,
        "meta_arg_of_pericenter": 2.2996,
        "meta_mean_anomaly": 59.8157,
        "meta_ephemeris_type": 0,
        "meta_classification_type": "U",
        "meta_norad_cat_id": 30253,
        "meta_element_set_no": 999,
        "meta_rev_at_epoch": 94213,
        "meta_bstar": 0.0019953,
        "meta_mean_motion_dot": 2.164e-05,
        "meta_mean_motion_ddot": 0,
        "tle_line1": "1 30253U 99025XN  25361.24851108  .00002164  00000+0  19953-2 0  9995",
        "tle_line2": "2 30253  98.7506  88.0845 0220763   2.2996  59.8157 13.73239454942136"
      },
      "geometry": {
        "type": "Point",
        "coordinates": [
          103.94647587563098,
          -59.809188602842326
        ]
      }
    },
    {
      "type": "Feature",
      "properties": {
        "norad_id": 30257,
        "name": "FENGYUN 1C DEB",
        "group": "fengyun-1c-debris",
        "lat": -34.177436150323196,
        "lon": 5.952733044794006,
        "alt_km": 867.5834009987648,
        "timestamp": "2025-12-27T19:21:59.024994+00:00",
        "meta_object_name": "FENGYUN 1C DEB",
        "meta_object_id": "1999-025XS",
        "meta_epoch": "2025-12-27T11:43:26.774976",
        "meta_mean_motion": 14.09731787,
        "meta_eccentricity": 0.0059549,
        "meta_inclination": 98.7501,
        "meta_ra_of_asc_node": 359.6403,
        "meta_arg_of_pericenter": 58.2338,
        "meta_mean_anomaly": 92.7763,
        "meta_ephemeris_type": 0,
        "meta_classification_type": "U",
        "meta_norad_cat_id": 30257,
        "meta_element_set_no": 999,
        "meta_rev_at_epoch": 97425,
        "meta_bstar": 0.00013005,
        "meta_mean_motion_dot": 1.9e-06,
        "meta_mean_motion_ddot": 0,
        "tle_line1": "1 30257U 99025XS  25361.48850434  .00000190  00000+0  13005-3 0  9996",
        "tle_line2": "2 30257  98.7501 359.6403 0059549  58.2338  92.7763 14.09731787974258"
      },
      "geometry": {
        "type": "Point",
        "coordinates": [
          5.952733044794006,
          -34.177436150323196
        ]
      }
    },
    {
      "type": "Feature",
      "properties": {
        "norad_id": 30259,
        "name": "FENGYUN 1C DEB",
        "group": "fengyun-1c-debris",
        "lat": 63.86897456769485,
        "lon": 52.50376722144442,
        "alt_km": 762.9235167220941,
        "timestamp": "2025-12-27T19:21:59.025003+00:00",
        "meta_object_name": "FENGYUN 1C DEB",
        "meta_object_id": "1999-025XU",
        "meta_epoch": "2025-12-27T02:52:41.502720",
        "meta_mean_motion": 14.51578969,
        "meta_eccentricity": 0.02420713,
        "meta_inclination": 98.7611,
        "meta_ra_of_asc_node": 213.465,
        "meta_arg_of_pericenter": 224.5367,
        "meta_mean_anomaly": 264.7766,
        "meta_ephemeris_type": 0,
        "meta_classification_type": "U",
        "meta_norad_cat_id": 30259,
        "meta_element_set_no": 999,
        "meta_rev_at_epoch": 99683,
        "meta_bstar": 0.00052455101,
        "meta_mean_motion_dot": 3.015e-05,
        "meta_mean_motion_ddot": 0,
        "tle_line1": "1 30259U 99025XU  25361.11992480  .00003015  00000+0  52455-3 0  9997",
        "tle_line2": "2 30259  98.7611 213.4650 0242071 224.5367 264.7766 14.51578969996837"
      },
      "geometry": {
        "type": "Point",
        "coordinates": [
          52.50376722144442,
          63.86897456769485
        ]
      }
    },
    {
      "type": "Feature",
      "properties": {
        "norad_id": 30263,
        "name": "FENGYUN 1C DEB",
        "group": "fengyun-1c-debris",
        "lat": 52.03147097647206,
        "lon": 105.05065651711165,
        "alt_km": 890.8101292657657,
        "timestamp": "2025-12-27T19:21:59.025012+00:00",
        "meta_object_name": "FENGYUN 1C DEB",
        "meta_object_id": "1999-025XY",
        "meta_epoch": "2025-12-26T14:03:33.056064",
        "meta_mean_motion": 14.015148,
        "meta_eccentricity": 0.0144613,
        "meta_inclination": 98.9329,
        "meta_ra_of_asc_node": 115.4821,
        "meta_arg_of_pericenter": 321.6609,
        "meta_mean_anomaly": 51.9016,
        "meta_ephemeris_type": 0,
        "meta_classification_type": "U",
        "meta_norad_cat_id": 30263,
        "meta_element_set_no": 999,
        "meta_rev_at_epoch": 96219,
        "meta_bstar": 0.0010018,
        "meta_mean_motion_dot": 1.615e-05,
        "meta_mean_motion_ddot": 0,
        "tle_line1": "1 30263U 99025XY  25360.58579926  .00001615  00000+0  10018-2 0  9990",
        "tle_line2": "2 30263  98.9329 115.4821 0144613 321.6609  51.9016 14.01514800962197"
      },
      "geometry": {
        "type": "Point",
        "coordinates": [
          105.05065651711165,
          52.03147097647206
        ]
      }
    }
  ]
}